NORAD_CAT_ID,OBJECT_NAME,OBJECT_TYPE,EPOCH,MEAN_MOTION,ECCENTRICITY,INCLINATION,RA_OF_ASC_NODE,ARG_OF_PERICENTER,MEAN_ANOMALY,BSTAR,MEAN_MOTION_DOT,MEAN_MOTION_DDOT,TLE_LINE0,TLE_LINE1,TLE_LINE2,SEMIMAJOR_AXIS,PERIOD,APOGEE,PERIGEE,DECAYED
51860.0,STARLINK-3559,PAYLOAD,2022-03-07 20:00:01,15.81647315,0.0001169,53.2174,123.3711,68.0033,105.2974,-0.0047626,-0.00881325,0.0,0 STARLINK-3559,1 51860U 22022J   22066.83334491 -.00881325  00000-0 -47626-2 0  9995,2 51860  53.2174 123.3711 0001169  68.0033 105.2974 15.81647315  1885,6703.919,91.044,326.567,325.0,0.0
51860.0,STARLINK-3559,PAYLOAD,2022-03-08 14:00:01,15.80224363,0.0001129,53.2173,119.6184,64.2599,60.0321,-0.0050106,-0.00869022,0.0,0 STARLINK-3559,1 51860U 22022J   22067.58334491 -.00869022  00000-0 -50106-2 0  9995,2 51860  53.2173 119.6184 0001129  64.2599  60.0321 15.80224363  1435,6707.943,91.126,330.565,329.05,0.0
51860.0,STARLINK-3559,PAYLOAD,2022-03-08 20:00:01,15.79758431,0.0001206,53.2175,118.3672,52.8091,54.2941,-0.0051816,-0.00878595,0.0,0 STARLINK-3559,1 51860U 22022J   22067.83334491 -.00878595  00000-0 -51816-2 0  9997,2 51860  53.2175 118.3672 0001206  52.8091  54.2941 15.79758431  2037,6709.262,91.153,331.936,330.31699999999995,0.0
51860.0,STARLINK-3559,PAYLOAD,2022-03-08 22:00:00,15.79599451,0.0001209,53.2176,117.9503,62.5729,158.7075,-0.0052011,-0.00875773,0.0,0 STARLINK-3559,1 51860U 22022J   22067.91667824 -.00875773  00000-0 -52011-2 0  9998,2 51860  53.2176 117.9503 0001209  62.5729 158.7075 15.79599451  1486,6709.712,91.162,332.3880000000001,330.765,0.0
51860.0,STARLINK-3559,PAYLOAD,2022-03-09 14:00:01,15.78338456,0.0001107,53.2173,114.6249,56.1854,356.8036,-0.0054783,-0.00871268,0.0,0 STARLINK-3559,1 51860U 22022J   22068.58334491 -.00871268  00000-0 -54783-2 0  9996,2 51860  53.2173 114.6249 0001107  56.1854 356.8036 15.78338456  1594,6713.285,91.235,335.89300000000014,334.407,0.0
51860.0,STARLINK-3559,PAYLOAD,2022-03-09 22:00:01,15.7770989,0.0001256,53.2173,112.9614,52.2049,95.5711,-0.0056428,-0.00872223,0.0,0 STARLINK-3559,1 51860U 22022J   22068.91668981 -.00872223  00000-0 -56428-2 0  9997,2 51860  53.2173 112.9614 0001256  52.2049  95.5711 15.77709890  2208,6715.068,91.272,337.776,336.09,0.0
51860.0,STARLINK-3559,PAYLOAD,2022-03-10 14:00:01,15.76451759,0.0001068,53.2173,109.6456,59.3863,275.494,-0.0059708,-0.00872242,0.0,0 STARLINK-3559,1 51860U 22022J   22069.58334491 -.00872242  00000-0 -59708-2 0  9992,2 51860  53.2173 109.6456 0001068  59.3863 275.4940 15.76451759  1757,6718.64,91.344,341.223,339.788,0.0
51860.0,STARLINK-3559,PAYLOAD,2022-03-10 20:00:01,15.75982907,0.0001133,53.2176,108.4011,58.8279,255.4623,-0.0061398,-0.00877853,0.0,0 STARLINK-3559,1 51860U 22022J   22069.83334491 -.00877853  00000-0 -61398-2 0  9991,2 51860  53.2176 108.4011 0001133  58.8279 255.4623 15.75982907  2358,6719.973000000001,91.372,342.599,341.076,0.0
51860.0,STARLINK-3559,PAYLOAD,2022-03-10 22:00:01,15.75821983,0.0001138,53.2175,107.9866,49.8989,17.5005,-0.0061369,-0.0087184,0.0,0 STARLINK-3559,1 51860U 22022J   22069.91668981 -.00871840  00000-0 -61369-2 0  9992,2 51860  53.2175 107.9866 0001138  49.8989  17.5005 15.75821983  1808,6720.43,91.381,343.06,341.53,0.0
51860.0,STARLINK-3559,PAYLOAD,2022-03-11 12:00:00,15.747195499999998,0.0001283,53.2176,105.0932,56.9377,80.3658,-0.0064236999999999,-0.00869603,0.0,0 STARLINK-3559,1 51860U 22022J   22070.50001157 -.00869603  00000-0 -64237-2 0  9996,2 51860  53.2176 105.0932 0001283  56.9377  80.3658 15.74719550  1899,6723.566,91.445,346.2940000000001,344.569,0.0
51860.0,STARLINK-3559,PAYLOAD,2022-03-11 20:00:01,15.74092858,0.0001335,53.2175,103.4388,54.7393,172.9362,-0.0066349999999999,-0.0087353999999999,0.0,0 STARLINK-3559,1 51860U 22022J   22070.83334491 -.00873540  00000-0 -66350-2 0  9995,2 51860  53.2175 103.4388 0001335  54.7393 172.9362 15.74092858  2512,6725.351,91.481,348.11400000000015,346.3180000000001,0.0
51860.0,STARLINK-3559,PAYLOAD,2022-03-11 22:00:00,15.73900356,0.0001131,53.2173,103.0256,55.4494,284.7091,-0.0060415,-0.00796158,0.0,0 STARLINK-3559,1 51860U 22022J   22070.91667824 -.00796158  00000-0 -60415-2 0  9998,2 51860  53.2173 103.0256 0001131  55.4494 284.7091 15.73900356  1963,6725.899,91.492,348.525,347.00300000000016,0.0
51860.0,STARLINK-3559,PAYLOAD,2022-03-12 06:00:00,15.73214905,0.00014,53.2174,101.3762,44.6122,24.9718,-0.00013145,-0.00019038,0.0,0 STARLINK-3559,1 51860U 22022J   22071.25001157 -.00019038  00000-0 -13145-3 0  9991,2 51860  53.2174 101.3762 0001400  44.6122  24.9718 15.73214905  2570,6727.853,91.532,350.66,348.776,0.0
51860.0,STARLINK-3559,PAYLOAD,2022-03-12 14:00:01,15.72913621,0.0001091,53.2172,99.7289,55.2447,103.4538,0.002896,0.00421734,0.0,0 STARLINK-3559,1 51860U 22022J   22071.58334491  .00421734  00000-0  28960-2 0  9995,2 51860  53.2172  99.7289 0001091  55.2447 103.4538 15.72913621  2063,6728.712,91.55,351.311,349.843,0.0
51860.0,STARLINK-3559,PAYLOAD,2022-03-12 20:00:01,15.73246404,0.0001192,53.2188,98.495,48.558,86.8345,-0.00014971,-0.00021618,0.0,0 STARLINK-3559,1 51860U 22022J   22071.83334491 -.00021618  00000-0 -14971-3 0  9990,2 51860  53.2188  98.4950 0001192  48.5580  86.8345 15.73246404  2661,6727.763000000001,91.53,350.43,348.826,0.0
51860.0,STARLINK-3559,PAYLOAD,2022-03-12 22:00:00,15.73237432,0.0001149,53.2187,98.0822,49.6687,197.9714,-6.1275e-05,-9.224e-05,0.0,0 STARLINK-3559,1 51860U 22022J   22071.91667824 -.00009224  00000-0 -61275-4 0  9997,2 51860  53.2187  98.0822 0001149  49.6687 197.9714 15.73237432  2122,6727.788000000001,91.531,350.426,348.88,0.0
51860.0,STARLINK-3559,PAYLOAD,2022-03-13 14:00:01,15.73130414,0.0001344,53.218,94.7852,40.2197,25.3057,3.4777e-05,4.249e-05,0.0,0 STARLINK-3559,1 51860U 22022J   22072.58334491  .00004249  00000-0  34777-4 0  9999,2 51860  53.2180  94.7852 0001344  40.2197  25.3057 15.73130414  2789,6728.094,91.537,350.86300000000006,349.05400000000014,0.0
51860.0,STARLINK-3559,PAYLOAD,2022-03-13 22:00:01,15.73097523,0.0001054,53.2179,93.134,47.1807,107.2519,0.00063185,0.00088604,0.0,0 STARLINK-3559,1 51860U 22022J   22072.91668981  .00088604  00000-0  63185-3 0  9991,2 51860  53.2179  93.1340 0001054  47.1807 107.2519 15.73097523  2274,6728.187,91.539,350.76199999999994,349.343,0.0
51860.0,STARLINK-3559,PAYLOAD,2022-03-14 04:00:00,15.731898499999998,0.0001136,53.2183,91.8978,49.5707,81.4459,0.00030522,0.00042413,0.0,0 STARLINK-3559,1 51860U 22022J   22073.16667824  .00042413  00000-0  30522-3 0  9991,2 51860  53.2183  91.8978 0001136  49.5707  81.4459 15.73189850  2874,6727.924,91.534,350.55300000000005,349.025,0.0
51860.0,STARLINK-3559,PAYLOAD,2022-03-14 14:00:01,15.73262185,0.00013,53.2182,89.8371,40.3382,291.9532,0.00067258,0.000951,0.0,0 STARLINK-3559,1 51860U 22022J   22073.58335648  .00095100  00000-0  67258-3 0  9990,2 51860  53.2182  89.8371 0001300  40.3382 291.9532 15.73262185  2387,6727.718000000003,91.53,350.457,348.708,0.0
51860.0,STARLINK-3559,PAYLOAD,2022-03-14 20:00:01,15.73308746,0.0001184,53.2186,88.5982,48.9552,260.0483,0.00049884,0.00070305,0.0,0 STARLINK-3559,1 51860U 22022J   22073.83334491  .00070305  00000-0  49884-3 0  9998,2 51860  53.2186  88.5982 0001184  48.9552 260.0483 15.73308746  2980,6727.585,91.527,350.247,348.654,0.0
51860.0,STARLINK-3559,PAYLOAD,2022-03-14 22:00:00,15.73303951,0.0001212,53.2184,88.1854,50.4461,10.7945,0.00015489,0.00021269,0.0,0 STARLINK-3559,1 51860U 22022J   22073.91667824  .00021269  00000-0  15489-3 0  9995,2 51860  53.2184  88.1854 0001212  50.4461  10.7945 15.73303951  2998,6727.599,91.527,350.279,348.648,0.0
51860.0,STARLINK-3559,PAYLOAD,2022-03-15 02:00:01,15.73370512,0.0001228,53.2186,87.361,53.8559,231.9005,-0.0010099,-0.00141025,0.0,0 STARLINK-3559,1 51860U 22022J   22074.08334491 -.00141025  00000-0 -10099-2 0  9991,2 51860  53.2186  87.3610 0001228  53.8559 231.9005 15.73370512  3029,6727.409000000002,91.523,350.1,348.4480000000001,0.0
51860.0,STARLINK-3559,PAYLOAD,2022-03-15 20:00:01,15.73050445,0.0001479,53.2179,83.6494,58.9471,156.9453,0.00061017,0.00085338,0.0,0 STARLINK-3559,1 51860U 22022J   22074.83334491  .00085338  00000-0  61017-3 0  9993,2 51860  53.2179  83.6494 0001479  58.9471 156.9453 15.73050445  3143,6728.321999999999,91.542,351.182,349.191,0.0
51860.0,STARLINK-3559,PAYLOAD,2022-03-15 22:00:00,15.73051737,0.000147,53.2177,83.2368,61.7548,266.3324,0.00077141,0.00108357,0.0,0 STARLINK-3559,1 51860U 22022J   22074.91667824  .00108357  00000-0  77141-3 0  9993,2 51860  53.2177  83.2368 0001470  61.7548 266.3324 15.73051737  2591,6728.318,91.542,351.172,349.194,0.0
51860.0,STARLINK-3559,PAYLOAD,2022-03-16 14:00:01,15.73223969,0.0001445,53.218,79.94,49.4519,96.2914,0.00024958,0.00034587,0.0,0 STARLINK-3559,1 51860U 22022J   22075.58334491  .00034587  00000-0  24958-3 0  9999,2 51860  53.2180  79.9400 0001445  49.4519  96.2914 15.73223969  2703,6727.8269999999975,91.532,350.664,348.72,0.0
51860.0,STARLINK-3559,PAYLOAD,2022-03-16 20:00:01,15.73224803,0.000135,53.2182,78.7013,57.2086,65.2592,0.00047496,0.00066639,0.0,0 STARLINK-3559,1 51860U 22022J   22075.83334491  .00066639  00000-0  47496-3 0  9992,2 51860  53.2182  78.7013 0001350  57.2086  65.2592 15.73224803  2743,6727.824000000001,91.532,350.598,348.781,0.0
51860.0,STARLINK-3559,PAYLOAD,2022-03-17 06:00:00,15.73254999,0.0001593,53.2182,76.6406,55.8085,267.896,-0.00075326,-0.00105273,0.0,0 STARLINK-3559,1 51860U 22022J   22076.25001157 -.00105273  00000-0 -75326-3 0  9992,2 51860  53.2182  76.6406 0001593  55.8085 267.8960 15.73254999  3365,6727.738,91.53,350.675,348.532,0.0
51860.0,STARLINK-3559,PAYLOAD,2022-03-17 14:00:01,15.73201676,0.000152,53.2177,74.9909,52.3264,0.3332,0.0001933,0.00026596,0.0,0 STARLINK-3559,1 51860U 22022J   22076.58334491  .00026596  00000-0  19330-3 0  9999,2 51860  53.2177  74.9909 0001520  52.3264   0.3332 15.73201676  3412,6727.89,91.533,350.778,348.733,0.0
